{
    "links": {
        "self": "http://www.neowsapp.com/rest/v1/neo/3759644?api_key=iIulBulltgU6a56xZRHN4H3l9WmuAYTsLGpBGhQ2"
    },
    "id": "3759644",
    "neo_reference_id": "3759644",
    "name": "(2016 RO40)",
    "designation": "2016 RO40",
    "nasa_jpl_url": "http://ssd.jpl.nasa.gov/sbdb.cgi?sstr=3759644",
    "absolute_magnitude_h": 24.5,
    "estimated_diameter": {
        "kilometers": {
            "estimated_diameter_min": 0.0334622374,
            "estimated_diameter_max": 0.0748238376
        },
        "meters": {
            "estimated_diameter_min": 33.4622374455,
            "estimated_diameter_max": 74.8238376074
        },
        "miles": {
            "estimated_diameter_min": 0.0207924639,
            "estimated_diameter_max": 0.0464933628
        },
        "feet": {
            "estimated_diameter_min": 109.7842471007,
            "estimated_diameter_max": 245.4850393757
        }
    },
    "is_potentially_hazardous_asteroid": false,
    "close_approach_data": [
        {
            "close_approach_date": "2016-09-08",
            "close_approach_date_full": "2016-Sep-08 23:34",
            "epoch_date_close_approach": 1473377640000,
            "relative_velocity": {
                "kilometers_per_second": "14.8265773618",
                "kilometers_per_hour": "53375.678502494",
                "miles_per_hour": "33165.5709006191"
            },
            "miss_distance": {
                "astronomical": "0.0400179677",
                "lunar": "15.5669894353",
                "kilometers": "5986602.729648799",
                "miles": "3719902.4420354662"
            },
            "orbiting_body": "Earth"
        }
    ],
    "orbital_data": {
        "orbit_id": "3",
        "orbit_determination_date": "2017-04-06 08:23:49",
        "first_observation_date": "2016-09-12",
        "last_observation_date": "2016-09-25",
        "data_arc_in_days": 13,
        "observations_used": 23,
        "orbit_uncertainty": "8",
        "minimum_orbit_intersection": ".0176865",
        "jupiter_tisserand_invariant": "3.276",
        "epoch_osculation": "2457644.5",
        "eccentricity": ".6487601891707837",
        "semi_major_axis": "2.294427031342603",
        "inclination": "3.828712952065525",
        "ascending_node_longitude": "4.970983993748214",
        "orbital_period": "1269.433054798084",
        "perihelion_distance": ".8058941164502161",
        "perihelion_argument": "284.1830277360296",
        "aphelion_distance": "3.78295994623499",
        "perihelion_time": "2457601.136636962031",
        "mean_anomaly": "12.29746667984149",
        "mean_motion": ".2835911658667667",
        "equinox": "J2000",
        "orbit_class": {
            "orbit_class_type": "APO",
            "orbit_class_description": "Near-Earth asteroid orbits which cross the Earth’s orbit similar to that of 1862 Apollo",
            "orbit_class_range": "a (semi-major axis) > 1.0 AU; q (perihelion) < 1.017 AU"
        }
    },
    "is_sentry_object": false
}